CCSDS_OMM_VERS = 2.0
CREATION_DATE  = 
ORIGINATOR     = 

OBJECT_NAME    = COSMOS 1933
OBJECT_ID      = 1988-020A
CENTER_NAME    = EARTH
REF_FRAME      = TEME
TIME_SYSTEM    = UTC
MEAN_ELEMENT_THEORY = SGP/SGP4

EPOCH          = 2025-12-13T11:28:54.892704
MEAN_MOTION    = 15.17117734
ECCENTRICITY   = .00058185
INCLINATION    = 82.5130
RA_OF_ASC_NODE = 336.1492
ARG_OF_PERICENTER = 124.0068
MEAN_ANOMALY   = 236.1719

EPHEMERIS_TYPE = 0
CLASSIFICATION_TYPE = U
NORAD_CAT_ID   = 18958
ELEMENT_SET_NO = 999
REV_AT_EPOCH   = 3715
BSTAR          = .31996401E-3
MEAN_MOTION_DOT = .6374E-4
MEAN_MOTION_DDOT = 0

CCSDS_OMM_VERS = 2.0
CREATION_DATE  = 
ORIGINATOR     = 

OBJECT_NAME    = SL-3 R/B
OBJECT_ID      = 1988-032B
CENTER_NAME    = EARTH
REF_FRAME      = TEME
TIME_SYSTEM    = UTC
MEAN_ELEMENT_THEORY = SGP/SGP4

EPOCH          = 2025-12-13T15:39:06.326784
MEAN_MOTION    = 15.18754512
ECCENTRICITY   = .00268375
INCLINATION    = 97.5080
RA_OF_ASC_NODE = 326.3663
ARG_OF_PERICENTER = 169.7761
MEAN_ANOMALY   = 190.4025

EPHEMERIS_TYPE = 0
CLASSIFICATION_TYPE = U
NORAD_CAT_ID   = 19046
ELEMENT_SET_NO = 999
REV_AT_EPOCH   = 3904
BSTAR          = .29171407E-3
MEAN_MOTION_DOT = .6049E-4
MEAN_MOTION_DDOT = 0

CCSDS_OMM_VERS = 2.0
CREATION_DATE  = 
ORIGINATOR     = 

OBJECT_NAME    = SL-16 R/B
OBJECT_ID      = 1988-039B
CENTER_NAME    = EARTH
REF_FRAME      = TEME
TIME_SYSTEM    = UTC
MEAN_ELEMENT_THEORY = SGP/SGP4

EPOCH          = 2025-12-13T10:50:20.224608
MEAN_MOTION    = 14.19596976
ECCENTRICITY   = .00196799
INCLINATION    = 71.0148
RA_OF_ASC_NODE = 250.8933
ARG_OF_PERICENTER = 115.1161
MEAN_ANOMALY   = 245.2009

EPHEMERIS_TYPE = 0
CLASSIFICATION_TYPE = U
NORAD_CAT_ID   = 19120
ELEMENT_SET_NO = 999
REV_AT_EPOCH   = 94614
BSTAR          = -.1447268E-4
MEAN_MOTION_DOT = -.79E-6
MEAN_MOTION_DDOT = 0

CCSDS_OMM_VERS = 2.0
CREATION_DATE  = 
ORIGINATOR     = 

OBJECT_NAME    = COSMOS 1953
OBJECT_ID      = 1988-050A
CENTER_NAME    = EARTH
REF_FRAME      = TEME
TIME_SYSTEM    = UTC
MEAN_ELEMENT_THEORY = SGP/SGP4

EPOCH          = 2025-12-13T16:29:47.796864
MEAN_MOTION    = 15.26952402
ECCENTRICITY   = .00137341
INCLINATION    = 82.5090
RA_OF_ASC_NODE = 244.6305
ARG_OF_PERICENTER = 68.5917
MEAN_ANOMALY   = 291.6785

EPHEMERIS_TYPE = 0
CLASSIFICATION_TYPE = U
NORAD_CAT_ID   = 19210
ELEMENT_SET_NO = 999
REV_AT_EPOCH   = 2465
BSTAR          = .25736871E-3
MEAN_MOTION_DOT = .6859E-4
MEAN_MOTION_DDOT = 0

CCSDS_OMM_VERS = 2.0
CREATION_DATE  = 
ORIGINATOR     = 

OBJECT_NAME    = SL-8 R/B
OBJECT_ID      = 1988-053B
CENTER_NAME    = EARTH
REF_FRAME      = TEME
TIME_SYSTEM    = UTC
MEAN_ELEMENT_THEORY = SGP/SGP4

EPOCH          = 2025-12-13T12:50:31.961760
MEAN_MOTION    = 14.38860184
ECCENTRICITY   = .00189864
INCLINATION    = 74.0478
RA_OF_ASC_NODE = 271.2536
ARG_OF_PERICENTER = 115.1374
MEAN_ANOMALY   = 57.3686

EPHEMERIS_TYPE = 0
CLASSIFICATION_TYPE = U
NORAD_CAT_ID   = 19257
ELEMENT_SET_NO = 999
REV_AT_EPOCH   = 96420
BSTAR          = .14862682E-3
MEAN_MOTION_DOT = .432E-5
MEAN_MOTION_DDOT = 0

CCSDS_OMM_VERS = 2.0
CREATION_DATE  = 
ORIGINATOR     = 

OBJECT_NAME    = COSMOS 1975
OBJECT_ID      = 1988-093A
CENTER_NAME    = EARTH
REF_FRAME      = TEME
TIME_SYSTEM    = UTC
MEAN_ELEMENT_THEORY = SGP/SGP4

EPOCH          = 2025-12-13T16:46:01.425504
MEAN_MOTION    = 15.26491078
ECCENTRICITY   = .001291
INCLINATION    = 82.5202
RA_OF_ASC_NODE = 203.8688
ARG_OF_PERICENTER = 109.3693
MEAN_ANOMALY   = 250.8942

EPHEMERIS_TYPE = 0
CLASSIFICATION_TYPE = U
NORAD_CAT_ID   = 19573
ELEMENT_SET_NO = 999
REV_AT_EPOCH   = 628
BSTAR          = .35597399E-3
MEAN_MOTION_DOT = .9343E-4
MEAN_MOTION_DDOT = 0

CCSDS_OMM_VERS = 2.0
CREATION_DATE  = 
ORIGINATOR     = 

OBJECT_NAME    = SL-14 R/B
OBJECT_ID      = 1988-093B
CENTER_NAME    = EARTH
REF_FRAME      = TEME
TIME_SYSTEM    = UTC
MEAN_ELEMENT_THEORY = SGP/SGP4

EPOCH          = 2025-12-13T15:23:25.503360
MEAN_MOTION    = 14.85550355
ECCENTRICITY   = .00198959
INCLINATION    = 82.5305
RA_OF_ASC_NODE = 122.8211
ARG_OF_PERICENTER = 326.3193
MEAN_ANOMALY   = 44.0778

EPHEMERIS_TYPE = 0
CLASSIFICATION_TYPE = U
NORAD_CAT_ID   = 19574
ELEMENT_SET_NO = 999
REV_AT_EPOCH   = 98826
BSTAR          = .88042309E-4
MEAN_MOTION_DOT = .787E-5
MEAN_MOTION_DDOT = 0

CCSDS_OMM_VERS = 2.0
CREATION_DATE  = 
ORIGINATOR     = 

OBJECT_NAME    = SL-16 R/B
OBJECT_ID      = 1988-102B
CENTER_NAME    = EARTH
REF_FRAME      = TEME
TIME_SYSTEM    = UTC
MEAN_ELEMENT_THEORY = SGP/SGP4

EPOCH          = 2025-12-13T15:49:19.738272
MEAN_MOTION    = 14.16136480
ECCENTRICITY   = .00129369
INCLINATION    = 70.9998
RA_OF_ASC_NODE = 332.5080
ARG_OF_PERICENTER = 150.2950
MEAN_ANOMALY   = 209.8910

EPHEMERIS_TYPE = 0
CLASSIFICATION_TYPE = U
NORAD_CAT_ID   = 19650
ELEMENT_SET_NO = 999
REV_AT_EPOCH   = 91471
BSTAR          = .62155288E-4
MEAN_MOTION_DOT = .75E-6
MEAN_MOTION_DDOT = 0

CCSDS_OMM_VERS = 2.0
CREATION_DATE  = 
ORIGINATOR     = 

OBJECT_NAME    = INTERCOSMOS 24
OBJECT_ID      = 1989-080A
CENTER_NAME    = EARTH
REF_FRAME      = TEME
TIME_SYSTEM    = UTC
MEAN_ELEMENT_THEORY = SGP/SGP4

EPOCH          = 2025-12-13T14:50:12.494688
MEAN_MOTION    = 12.59442151
ECCENTRICITY   = .1188849
INCLINATION    = 82.6046
RA_OF_ASC_NODE = 160.3818
ARG_OF_PERICENTER = 132.4833
MEAN_ANOMALY   = 238.3134

EPHEMERIS_TYPE = 0
CLASSIFICATION_TYPE = U
NORAD_CAT_ID   = 20261
ELEMENT_SET_NO = 999
REV_AT_EPOCH   = 65596
BSTAR          = .37305211E-3
MEAN_MOTION_DOT = .1292E-4
MEAN_MOTION_DDOT = 0

CCSDS_OMM_VERS = 2.0
CREATION_DATE  = 
ORIGINATOR     = 

OBJECT_NAME    = SL-14 R/B
OBJECT_ID      = 1989-080C
CENTER_NAME    = EARTH
REF_FRAME      = TEME
TIME_SYSTEM    = UTC
MEAN_ELEMENT_THEORY = SGP/SGP4

EPOCH          = 2025-12-13T16:54:19.867968
MEAN_MOTION    = 12.50414806
ECCENTRICITY   = .12306476
INCLINATION    = 82.5927
RA_OF_ASC_NODE = 228.4017
ARG_OF_PERICENTER = 21.3844
MEAN_ANOMALY   = 343.4358

EPHEMERIS_TYPE = 0
CLASSIFICATION_TYPE = U
NORAD_CAT_ID   = 20262
ELEMENT_SET_NO = 999
REV_AT_EPOCH   = 64940
BSTAR          = .16370949E-3
MEAN_MOTION_DOT = .561E-5
MEAN_MOTION_DDOT = 0

CCSDS_OMM_VERS = 2.0
CREATION_DATE  = 
ORIGINATOR     = 

OBJECT_NAME    = DELTA 1 R/B
OBJECT_ID      = 1989-089B
CENTER_NAME    = EARTH
REF_FRAME      = TEME
TIME_SYSTEM    = UTC
MEAN_ELEMENT_THEORY = SGP/SGP4

EPOCH          = 2025-12-13T14:31:52.279680
MEAN_MOTION    = 14.50573239
ECCENTRICITY   = .0070034
INCLINATION    = 97.0750
RA_OF_ASC_NODE = 203.7058
ARG_OF_PERICENTER = 35.5934
MEAN_ANOMALY   = 324.9906

EPHEMERIS_TYPE = 0
CLASSIFICATION_TYPE = U
NORAD_CAT_ID   = 20323
ELEMENT_SET_NO = 999
REV_AT_EPOCH   = 88325
BSTAR          = .13734576E-3
MEAN_MOTION_DOT = .52E-5
MEAN_MOTION_DDOT = 0

CCSDS_OMM_VERS = 2.0
CREATION_DATE  = 
ORIGINATOR     = 

OBJECT_NAME    = ARIANE 40 R/B
OBJECT_ID      = 1990-005H
CENTER_NAME    = EARTH
REF_FRAME      = TEME
TIME_SYSTEM    = UTC
MEAN_ELEMENT_THEORY = SGP/SGP4

EPOCH          = 2025-12-13T15:25:25.306464
MEAN_MOTION    = 14.39799560
ECCENTRICITY   = .00112823
INCLINATION    = 98.3243
RA_OF_ASC_NODE = 45.7950
ARG_OF_PERICENTER = 103.2977
MEAN_ANOMALY   = 256.9470

EPHEMERIS_TYPE = 0
CLASSIFICATION_TYPE = U
NORAD_CAT_ID   = 20443
ELEMENT_SET_NO = 999
REV_AT_EPOCH   = 88042
BSTAR          = .15762961E-3
MEAN_MOTION_DOT = .452E-5
MEAN_MOTION_DDOT = 0

