COSMOS 1933             
1 18958U 88020A   25347.47841311  .00006374  00000+0  31996-3 0  9999
2 18958  82.5130 336.1492 0005818 124.0068 236.1719 15.17117734 37155
SL-3 R/B                
1 19046U 88032B   25347.65215656  .00006049  00000+0  29171-3 0  9999
2 19046  97.5080 326.3663 0026837 169.7761 190.4025 15.18754512 39049
SL-16 R/B               
1 19120U 88039B   25347.45162297 -.00000079  00000+0 -14473-4 0  9998
2 19120  71.0148 250.8933 0019679 115.1161 245.2009 14.19596976946147
COSMOS 1953             
1 19210U 88050A   25347.68735876  .00006859  00000+0  25737-3 0  9999
2 19210  82.5090 244.6305 0013734  68.5917 291.6785 15.26952402 24658
SL-8 R/B                
1 19257U 88053B   25347.53509215  .00000432  00000+0  14863-3 0  9992
2 19257  74.0478 271.2536 0018986 115.1374  57.3686 14.38860184964205
COSMOS 1975             
1 19573U 88093A   25347.69862761  .00009343  00000+0  35597-3 0  9999
2 19573  82.5202 203.8688 0012910 109.3693 250.8942 15.26491078  6284
SL-14 R/B               
1 19574U 88093B   25347.64126740  .00000787  00000+0  88042-4 0  9992
2 19574  82.5305 122.8211 0019895 326.3193  44.0778 14.85550355988261
SL-16 R/B               
1 19650U 88102B   25347.65925623  .00000075  00000+0  62155-4 0  9993
2 19650  70.9998 332.5080 0012936 150.2950 209.8910 14.16136480914714
INTERCOSMOS 24          
1 20261U 89080A   25347.61820017  .00001292  00000+0  37305-3 0  9996
2 20261  82.6046 160.3818 1188849 132.4833 238.3134 12.59442151655968
SL-14 R/B               
1 20262U 89080C   25347.70439662  .00000561  00000+0  16371-3 0  9997
2 20262  82.5927 228.4017 1230647  21.3844 343.4358 12.50414806649400
DELTA 1 R/B             
1 20323U 89089B   25347.60546620  .00000520  00000+0  13735-3 0  9992
2 20323  97.0750 203.7058 0070034  35.5934 324.9906 14.50573239883256
ARIANE 40 R/B           
1 20443U 90005H   25347.64265401  .00000452  00000+0  15763-3 0  9991
2 20443  98.3243  45.7950 0011282 103.2977 256.9470 14.39799560880425
